[Satellite]
VERSION=1.1
NAME=GPS BIIR-4  (PRN 20)
NICKNAME=GPS BIIR-4  (PRN 20)
TLE1=1 26360U 00025A   20157.74462543 -.00000029  00000-0  00000-0 0  9996
TLE2=2 26360  53.5243 109.6590 0050574 155.0647  19.7558  2.00565932147098
STATUS=0
